0 COSMOS 917 DEB
1 27884U 77047G   13287.14307834 -.00000959  00000-0  00000+0 0  4948
2 27884 067.2536 007.4026 5971384 074.6102 003.3596 02.01639121 80656
0 COSMOS 917 DEB
1 27884U 77047G   13293.08601422 -.00000937  00000-0  00000+0 0  4955
2 27884 067.2471 006.9970 5972721 074.4867 357.2374 02.01628541 80770
